[{"OBJECT_NAME":"STARLINK-3677","OBJECT_ID":"2022-025Q","EPOCH":"2026-03-09T07:11:46.213152","MEAN_MOTION":15.06401696,"ECCENTRICITY":0.00015376,"INCLINATION":53.0566,"RA_OF_ASC_NODE":32.6524,"ARG_OF_PERICENTER":85.1631,"MEAN_ANOMALY":274.9533,"EPHEMERIS_TYPE":0,"CLASSIFICATION_TYPE":"U","NORAD_CAT_ID":51970,"ELEMENT_SET_NO":999,"REV_AT_EPOCH":22086,"BSTAR":1.844148e-5,"MEAN_MOTION_DOT":-7.0e-8,"MEAN_MOTION_DDOT":0},{"OBJECT_NAME":"DISKSAT B","OBJECT_ID":"2025-305B","EPOCH":"2026-03-09T19:33:34.074144","MEAN_MOTION":15.07484556,"ECCENTRICITY":0.00037827,"INCLINATION":45.0018,"RA_OF_ASC_NODE":250.2098,"ARG_OF_PERICENTER":311.4052,"MEAN_ANOMALY":48.6498,"EPHEMERIS_TYPE":0,"CLASSIFICATION_TYPE":"U","NORAD_CAT_ID":67220,"ELEMENT_SET_NO":999,"REV_AT_EPOCH":1231,"BSTAR":0.00082400752,"MEAN_MOTION_DOT":0.00012481,"MEAN_MOTION_DDOT":0}]
